NORAD_CAT_ID,OBJECT_NAME,OBJECT_TYPE,EPOCH,MEAN_MOTION,ECCENTRICITY,INCLINATION,RA_OF_ASC_NODE,ARG_OF_PERICENTER,MEAN_ANOMALY,BSTAR,MEAN_MOTION_DOT,MEAN_MOTION_DDOT,TLE_LINE0,TLE_LINE1,TLE_LINE2,SEMIMAJOR_AXIS,PERIOD,APOGEE,PERIGEE,DECAYED
52346.0,STARLINK-3812,PAYLOAD,2024-02-29 08:04:43,15.08840794,0.0001238,53.216,278.2181,96.127,263.9864,8.2263e-05,1.022e-05,0.0,0 STARLINK-3812,1 52346U 22045R   24060.33660955  .00001022  00000-0  82263-4 0  9992,2 52346  53.2160 278.2181 0001238  96.1270 263.9864 15.08840794104163,6917.878,95.438,540.599,538.887,0.0
52346.0,STARLINK-3812,PAYLOAD,2024-02-29 20:47:47,15.08838717,0.0001227,53.2158,275.8389,95.3829,264.7303,0.00021972,3.211e-05,0.0,0 STARLINK-3812,1 52346U 22045R   24060.86652641  .00003211  00000-0  21972-3 0  9994,2 52346  53.2158 275.8389 0001227  95.3829 264.7303 15.08838717104240,6917.884,95.438,540.598,538.9,0.0
52346.0,STARLINK-3812,PAYLOAD,2024-02-29 23:58:33,15.08838786,0.0001306,53.217,275.243,101.5644,258.5495,0.00029283,4.375e-05,0.0,0 STARLINK-3812,1 52346U 22045R   24060.99900213  .00004375  00000-0  29283-3 0  9994,2 52346  53.2170 275.2430 0001306 101.5644 258.5495 15.08838786104269,6917.884,95.438,540.653,538.846,0.0
52346.0,STARLINK-3812,PAYLOAD,2024-03-01 20:38:35,15.08840413,0.0001295,53.2162,271.3782,92.3921,267.722,2.4955e-05,1.09e-06,0.0,0 STARLINK-3812,1 52346U 22045R   24061.86013048  .00000109  00000-0  24955-4 0  9995,2 52346  53.2162 271.3782 0001295  92.3921 267.7220 15.08840413104391,6917.879,95.438,540.64,538.848,0.0
52346.0,STARLINK-3812,PAYLOAD,2024-03-02 18:53:58,15.08845778,0.0001432,53.2168,267.2144,96.7033,263.4122,-9.3118e-06,-4.36e-06,0.0,0 STARLINK-3812,1 52346U 22045R   24062.78748712 -.00000436  00000-0 -93118-5 0  9993,2 52346  53.2168 267.2144 0001432  96.7033 263.4122 15.08845778104537,6917.863,95.437,540.718,538.737,0.0
52346.0,STARLINK-3812,PAYLOAD,2024-03-03 12:23:14,15.08805675,0.000131,53.2173,263.949,101.004,259.1099,0.00055331,8.521e-05,0.0,0 STARLINK-3812,1 52346U 22045R   24063.51614174  .00008521  00000-0  55331-3 0  9993,2 52346  53.2173 263.9490 0001310 101.0040 259.1099 15.08805675104642,6917.985,95.44,540.757,538.944,0.0
52346.0,STARLINK-3812,PAYLOAD,2024-03-03 18:44:46,15.08832952,0.0001624,53.2178,262.7577,108.1868,251.9301,1.5345e-05,-4.4e-07,0.0,0 STARLINK-3812,1 52346U 22045R   24063.78109483 -.00000044  00000-0  15345-4 0  9999,2 52346  53.2178 262.7577 0001624 108.1868 251.9301 15.08832952104682,6917.902,95.438,540.89,538.643,0.0
52346.0,STARLINK-3812,PAYLOAD,2024-03-03 21:55:32,15.08837396,0.0001737,53.2181,262.1627,116.104,244.0131,5.5704e-06,-1.99e-06,0.0,0 STARLINK-3812,1 52346U 22045R   24063.91357259 -.00000199  00000-0  55704-5 0  9995,2 52346  53.2181 262.1627 0001737 116.1040 244.0131 15.08837396104706,6917.888,95.438,540.955,538.552,0.0
52346.0,STARLINK-3812,PAYLOAD,2024-03-04 05:52:27,15.08842984,0.0001498,53.2174,260.6747,98.75,261.3662,9.2615e-05,1.186e-05,0.0,0 STARLINK-3812,1 52346U 22045R   24064.24476725  .00001186  00000-0  92615-4 0  9999,2 52346  53.2174 260.6747 0001498  98.7500 261.3662 15.08842984104759,6917.871,95.437,540.773,538.7,0.0
52346.0,STARLINK-3812,PAYLOAD,2024-03-04 20:10:56,15.08842131,0.0001405,53.2163,257.9982,88.9043,271.211,4.8284e-05,4.81e-06,0.0,0 STARLINK-3812,1 52346U 22045R   24064.84092913  .00000481  00000-0  48284-4 0  9998,2 52346  53.2163 257.9982 0001405  88.9043 271.2110 15.08842131104840,6917.874,95.437,540.711,538.767,0.0
52346.0,STARLINK-3812,PAYLOAD,2024-03-05 20:01:44,15.08830002,0.0001402,53.2165,253.538,95.5954,264.5199,4.687e-05,4.58e-06,0.0,0 STARLINK-3812,1 52346U 22045R   24065.83453880  .00000458  00000-0  46870-4 0  9995,2 52346  53.2165 253.5380 0001402  95.5954 264.5199 15.08830002104990,6917.911,95.438,540.746,538.806,0.0
52346.0,STARLINK-3812,PAYLOAD,2024-03-06 05:34:02,15.08841073,0.0001333,53.2151,251.7503,84.015,276.0994,2.4155e-05,9.7e-07,0.0,0 STARLINK-3812,1 52346U 22045R   24066.23197307  .00000097  00000-0  24155-4 0  9990,2 52346  53.2151 251.7503 0001333  84.0150 276.0994 15.08841073105055,6917.877,95.437,540.664,538.82,0.0
52346.0,STARLINK-3812,PAYLOAD,2024-03-07 11:46:22,15.08832677,0.0001425,53.2176,246.1016,84.3521,275.7634,0.00012507,1.703e-05,0.0,0 STARLINK-3812,1 52346U 22045R   24067.49053839  .00001703  00000-0  12507-3 0  9992,2 52346  53.2176 246.1016 0001425  84.3521 275.7634 15.08832677105244,6917.903,95.438,540.754,538.782,0.0
52346.0,STARLINK-3812,PAYLOAD,2024-03-08 05:15:36,15.08839937,0.0001316,53.2178,242.8305,94.5492,265.565,0.00011017,1.466e-05,0.0,0 STARLINK-3812,1 52346U 22045R   24068.21917609  .00001466  00000-0  11017-3 0  9998,2 52346  53.2178 242.8305 0001316  94.5492 265.5650 15.08839937105352,6917.881,95.438,540.656,538.835,0.0
52346.0,STARLINK-3812,PAYLOAD,2024-03-08 17:58:42,15.08840909,0.0001655,53.2184,240.4511,93.5077,266.6105,6.6554e-05,7.71e-06,0.0,0 STARLINK-3812,1 52346U 22045R   24068.74909784  .00000771  00000-0  66554-4 0  9996,2 52346  53.2184 240.4511 0001655  93.5077 266.6105 15.08840909105433,6917.878,95.437,540.888,538.598,0.0
52346.0,STARLINK-3812,PAYLOAD,2024-03-08 21:09:28,15.08847245,0.0001528,53.2181,239.8562,93.0553,267.0614,1.5217e-05,-4.6e-07,0.0,0 STARLINK-3812,1 52346U 22045R   24068.88157456 -.00000046  00000-0  15217-4 0  9998,2 52346  53.2181 239.8562 0001528  93.0553 267.0614 15.08847245105453,6917.858,95.437,540.78,538.666,0.0
52346.0,STARLINK-3812,PAYLOAD,2024-03-09 11:27:56,15.08839678,0.0001645,53.2166,237.1801,96.1389,263.979,9.1878e-05,1.174e-05,0.0,0 STARLINK-3812,1 52346U 22045R   24069.47773760  .00001174  00000-0  91878-4 0  9995,2 52346  53.2166 237.1801 0001645  96.1389 263.9790 15.08839678105545,6917.881,95.438,540.884,538.608,0.0
52346.0,STARLINK-3812,PAYLOAD,2024-03-09 17:49:29,15.08838538,0.000167,53.2168,235.9904,97.218,262.9002,6.8857e-05,8.08e-06,0.0,0 STARLINK-3812,1 52346U 22045R   24069.74269855  .00000808  00000-0  68857-4 0  9994,2 52346  53.2168 235.9904 0001670  97.2180 262.9002 15.08838538105589,6917.885,95.438,540.905,538.595,0.0
52346.0,STARLINK-3812,PAYLOAD,2024-03-10 11:18:43,15.08838246,0.0001687,53.2154,232.719,98.0179,262.1004,3.5354e-05,2.75e-06,0.0,0 STARLINK-3812,1 52346U 22045R   24070.47134032  .00000275  00000-0  35354-4 0  9998,2 52346  53.2154 232.7190 0001687  98.0179 262.1004 15.08838246105693,6917.886,95.438,540.918,538.584,0.0
52346.0,STARLINK-3812,PAYLOAD,2024-03-10 17:40:16,15.08835955,8.51e-05,53.2135,231.53,82.598,277.5109,2.4016e-05,9.5e-07,0.0,0 STARLINK-3812,1 52346U 22045R   24070.73630216  .00000095  00000-0  24016-4 0  9995,2 52346  53.2135 231.5300 0000851  82.5980 277.5109 15.08835955105737,6917.893,95.438,540.346,539.169,0.0
52346.0,STARLINK-3812,PAYLOAD,2024-03-11 03:12:34,15.08842906,0.0001692,53.2179,229.7469,93.5395,266.579,4.4936e-06,-2.17e-06,0.0,0 STARLINK-3812,1 52346U 22045R   24071.13373840 -.00000217  00000-0  44936-5 0  9998,2 52346  53.2179 229.7469 0001692  93.5395 266.5790 15.08842906105790,6917.872,95.437,540.907,538.566,0.0
52346.0,STARLINK-3812,PAYLOAD,2024-03-11 17:31:03,15.08838557,0.0001267,53.2201,227.0722,89.6634,270.4503,6.6701e-05,7.74e-06,0.0,0 STARLINK-3812,1 52346U 22045R   24071.72990062  .00000774  00000-0  66701-4 0  9994,2 52346  53.2201 227.0722 0001267  89.6634 270.4503 15.08838557105882,6917.885,95.438,540.626,538.873,0.0
52346.0,STARLINK-3812,PAYLOAD,2024-03-12 09:24:55,15.08835355,0.0001361,53.2132,224.0947,77.2193,282.8951,4.9995e-05,5.08e-06,0.0,0 STARLINK-3812,1 52346U 22045R   24072.39230419  .00000508  00000-0  49995-4 0  9992,2 52346  53.2132 224.0947 0001361  77.2193 282.8951 15.08835355105987,6917.895,95.438,540.701,538.818,0.0
52346.0,STARLINK-3812,PAYLOAD,2024-03-13 02:54:09,15.0885364,0.0001517,53.2136,220.8246,88.2507,271.8659,-0.00015485,-2.753e-05,0.0,0 STARLINK-3812,1 52346U 22045R   24073.12093799 -.00002753  00000-0 -15485-3 0  9994,2 52346  53.2136 220.8246 0001517  88.2507 271.8659 15.08853640106094,6917.839,95.437,540.753,538.654,0.0
52346.0,STARLINK-3812,PAYLOAD,2024-03-13 18:48:01,15.08836568,0.0001862,53.2149,217.8507,87.2689,272.8517,9.2809e-06,-1.4e-06,0.0,0 STARLINK-3812,1 52346U 22045R   24073.78334718 -.00000140  00000-0  92809-5 0  9999,2 52346  53.2149 217.8507 0001862  87.2689 272.8517 15.08836568106192,6917.891,95.438,541.044,538.468,0.0
52346.0,STARLINK-3812,PAYLOAD,2024-03-15 08:57:16,15.08843654,0.0001756,53.2149,210.7144,86.8211,273.2982,7.2981e-05,8.74e-06,0.0,0 STARLINK-3812,1 52346U 22045R   24075.37310208  .00000874  00000-0  72981-4 0  9995,2 52346  53.2149 210.7144 0001756  86.8211 273.2982 15.08843654106431,6917.869,95.437,540.949,538.519,0.0
52346.0,STARLINK-3812,PAYLOAD,2024-03-16 11:58:49,15.0883876,0.000132,53.215,205.6595,82.4692,277.645,1.2655e-05,-8.6e-07,0.0,0 STARLINK-3812,1 52346U 22045R   24076.49918546 -.00000086  00000-0  12655-4 0  9996,2 52346  53.2150 205.6595 0001320  82.4692 277.6450 15.08838760106607,6917.884,95.438,540.662,538.836,0.0
52346.0,STARLINK-3812,PAYLOAD,2024-03-16 13:34:12,15.08837716,0.0001396,53.2173,205.3642,87.0823,273.0329,1.8992e-05,1.4e-07,0.0,0 STARLINK-3812,1 52346U 22045R   24076.56542756  .00000014  00000-0  18992-4 0  9990,2 52346  53.2173 205.3642 0001396  87.0823 273.0329 15.08837716106618,6917.887,95.438,540.718,538.787,0.0
52346.0,STARLINK-3812,PAYLOAD,2024-03-17 11:49:37,15.08832397,0.0001237,53.2182,201.2026,83.7178,276.3955,-2.2264e-05,-6.42e-06,0.0,0 STARLINK-3812,1 52346U 22045R   24077.49279476 -.00000642  00000-0 -22264-4 0  9995,2 52346  53.2182 201.2026 0001237  83.7178 276.3955 15.08832397106755,6917.904,95.438,540.624,538.913,0.0
52346.0,STARLINK-3812,PAYLOAD,2024-03-17 13:25:00,15.08829595,0.0001534,53.2177,200.8998,126.0048,234.1086,-6.9413e-06,-3.98e-06,0.0,0 STARLINK-3812,1 52346U 22045R   24077.55903470 -.00000398  00000-0 -69413-5 0  9996,2 52346  53.2177 200.8998 0001534 126.0048 234.1086 15.08829595106763,6917.912,95.438,540.838,538.716,0.0
